NORAD_CAT_ID,OBJECT_NAME,OBJECT_TYPE,EPOCH,MEAN_MOTION,ECCENTRICITY,INCLINATION,RA_OF_ASC_NODE,ARG_OF_PERICENTER,MEAN_ANOMALY,BSTAR,MEAN_MOTION_DOT,MEAN_MOTION_DDOT,TLE_LINE0,TLE_LINE1,TLE_LINE2,SEMIMAJOR_AXIS,PERIOD,APOGEE,PERIGEE,DECAYED
53731.0,STARLINK-4636,PAYLOAD,2022-12-26 13:36:15,15.08841156,0.0001928,53.2202,102.6594,43.7946,316.3199,1.8076e-05,0.0,0.0,0 STARLINK-4636,1 53731U 22107AH  22360.56684531  .00000000  00000-0  18076-4 0  9998,2 53731  53.2202 102.6594 0001928  43.7946 316.3199 15.08841156 18083,6917.877,95.437,541.076,538.408,0.0
53731.0,STARLINK-4636,PAYLOAD,2022-12-26 18:22:25,15.08845029,0.0001846,53.2195,101.7676,40.2277,319.8851,-0.00016199,-2.866e-05,0.0,0 STARLINK-4636,1 53731U 22107AH  22360.76556882 -.00002866  00000-0 -16199-3 0  9994,2 53731  53.2195 101.7676 0001846  40.2277 319.8851 15.08845029 18113,6917.865,95.437,541.007,538.453,0.0
53731.0,STARLINK-4636,PAYLOAD,2022-12-27 16:37:47,15.088548199999998,0.0001991,53.2196,97.6054,39.1368,320.9768,0.00013894,1.925e-05,0.0,0 STARLINK-4636,1 53731U 22107AH  22361.69291110  .00001925  00000-0  13894-3 0  9999,2 53731  53.2196  97.6054 0001991  39.1368 320.9768 15.08854820 18250,6917.835,95.437,541.077,538.323,0.0
53731.0,STARLINK-4636,PAYLOAD,2022-12-28 13:17:48,15.08845928,0.0001945,53.2201,93.7386,45.2431,314.872,6.1253e-05,6.87e-06,0.0,0 STARLINK-4636,1 53731U 22107AH  22362.55403496  .00000687  00000-0  61253-4 0  9994,2 53731  53.2201  93.7386 0001945  45.2431 314.8720 15.08845928 17753,6917.861999999999,95.437,541.073,538.382,0.0
53731.0,STARLINK-4636,PAYLOAD,2022-12-29 06:47:05,15.0882527,0.0002254999999999,53.2227,90.4694,30.229,329.8832,-0.00014524,-2.598e-05,0.0,0 STARLINK-4636,1 53731U 22107AH  22363.28269885 -.00002598  00000-0 -14524-3 0  9990,2 53731  53.2227  90.4694 0002255  30.2290 329.8832 15.08825270 17869,6917.925,95.438,541.35,538.23,0.0
53731.0,STARLINK-4636,PAYLOAD,2022-12-29 13:08:38,15.08821492,0.0002169,53.2207,89.2798,44.0398,316.0767,-0.00025612,-4.36e-05,0.0,0 STARLINK-4636,1 53731U 22107AH  22363.54766770 -.00004360  00000-0 -25612-3 0  9993,2 53731  53.2207  89.2798 0002169  44.0398 316.0767 15.08821492 18536,6917.937,95.439,541.302,538.3009999999998,0.0
53731.0,STARLINK-4636,PAYLOAD,2022-12-30 05:02:29,15.0883222,0.0001788,53.219,86.3047,35.0254,325.0856,-5.2713e-05,-1.127e-05,0.0,0 STARLINK-4636,1 53731U 22107AH  22364.21006080 -.00001127  00000-0 -52713-4 0  9990,2 53731  53.2190  86.3047 0001788  35.0254 325.0856 15.08832220 18001,6917.904,95.438,541.006,538.5319999999998,0.0
53731.0,STARLINK-4636,PAYLOAD,2022-12-30 12:59:24,15.0883387,0.0002085,53.2195,84.8171,38.2485,321.8655,0.00026545,3.938e-05,0.0,0 STARLINK-4636,1 53731U 22107AH  22364.54125148  .00003938  00000-0  26545-3 0  9996,2 53731  53.2195  84.8171 0002085  38.2485 321.8655 15.08833870 18057,6917.899,95.438,541.207,538.322,0.0
53731.0,STARLINK-4636,PAYLOAD,2022-12-30 17:45:32,15.08848228,0.0001913,53.2196,83.9277,45.0413,315.0734,0.00032207,4.843e-05,0.0,0 STARLINK-4636,1 53731U 22107AH  22364.73996199  .00004843  00000-0  32207-3 0  9997,2 53731  53.2196  83.9277 0001913  45.0413 315.0734 15.08848228 18080,6917.855,95.437,541.044,538.3969999999998,0.0
53731.0,STARLINK-4636,PAYLOAD,2022-12-31 14:25:32,15.0885245,0.0002129,53.2201,80.0613,42.6033,317.5124,0.00040891,6.228e-05,0.0,0 STARLINK-4636,1 53731U 22107AH  22365.60107492  .00006228  00000-0  40891-3 0  9991,2 53731  53.2201  80.0613 0002129  42.6033 317.5124 15.08852450 18846,6917.842,95.437,541.18,538.235,0.0
53731.0,STARLINK-4636,PAYLOAD,2023-01-01 04:44:02,15.08848839,0.0002545,53.2193,77.3865,42.6308,317.4881,5.3119e-05,5.57e-06,0.0,0 STARLINK-4636,1 53731U 22107AH  23001.19724788  .00000557  00000-0  53119-4 0  9993,2 53731  53.2193  77.3865 0002545  42.6308 317.4881 15.08848839 18307,6917.853,95.437,541.479,537.9580000000002,0.0
53731.0,STARLINK-4636,PAYLOAD,2023-01-01 11:05:36,15.08818417,0.0001610999999999,53.2223,76.1943,16.7889,343.3156,-2.1611e-05,-6.32e-06,0.0,0 STARLINK-4636,1 53731U 22107AH  23001.46222791 -.00000632  00000-0 -21611-4 0  9998,2 53731  53.2223  76.1943 0001611  16.7889 343.3156 15.08818417 18340,6917.946,95.439,540.9259999999998,538.697,0.0
53731.0,STARLINK-4636,PAYLOAD,2023-01-01 22:13:18,15.0882779,0.0001865999999999,53.2204,74.1158,39.2952,320.8175,-0.00019779,-3.434e-05,0.0,0 STARLINK-4636,1 53731U 22107AH  23001.92590966 -.00003434  00000-0 -19779-3 0  9995,2 53731  53.2204  74.1158 0001866  39.2952 320.8175 15.08827790 19041,6917.918000000002,95.438,541.0740000000002,538.492,0.0
53731.0,STARLINK-4636,PAYLOAD,2023-01-02 04:34:50,15.08837861,0.0002048,53.2205,72.925,35.2073,324.9054,-0.00021786,-3.754e-05,0.0,0 STARLINK-4636,1 53731U 22107AH  23002.19086396 -.00003754  00000-0 -21786-3 0  9998,2 53731  53.2205  72.9250 0002048  35.2073 324.9054 15.08837861 18459,6917.887,95.438,541.169,538.335,0.0
53731.0,STARLINK-4636,PAYLOAD,2023-01-02 10:56:22,15.08840602,0.0002059,53.2201,71.7365,33.4905,326.6217,-0.00012245,-2.237e-05,0.0,0 STARLINK-4636,1 53731U 22107AH  23002.45581981 -.00002237  00000-0 -12245-3 0  9992,2 53731  53.2201  71.7365 0002059  33.4905 326.6217 15.08840602 19127,6917.879,95.438,541.168,538.319,0.0
53731.0,STARLINK-4636,PAYLOAD,2023-01-02 22:04:03,15.08850949,0.0002282,53.2203,69.6551,35.8836,324.2309,4.1015e-06,-2.23e-06,0.0,0 STARLINK-4636,1 53731U 22107AH  23002.91948944 -.00000223  00000-0  41015-5 0  9990,2 53731  53.2203  69.6551 0002282  35.8836 324.2309 15.08850949 18567,6917.847,95.437,541.2909999999998,538.133,0.0
53731.0,STARLINK-4636,PAYLOAD,2023-01-03 10:47:08,15.08860238,0.000243,53.2203,67.2764,35.1185,324.9967,-0.00024457,-4.181e-05,0.0,0 STARLINK-4636,1 53731U 22107AH  23003.44940695 -.00004181  00000-0 -24457-3 0  9991,2 53731  53.2203  67.2764 0002430  35.1185 324.9967 15.08860238 19270,6917.819,95.436,541.365,538.003,0.0
53731.0,STARLINK-4636,PAYLOAD,2023-01-03 13:57:56,15.088331900000002,0.0002316999999999,53.221,66.683,35.7632,324.3515,0.00031192,4.679e-05,0.0,0 STARLINK-4636,1 53731U 22107AH  23003.58190673  .00004679  00000-0  31192-3 0  9993,2 53731  53.2210  66.6830 0002317  35.7632 324.3515 15.08833190 18664,6917.901,95.438,541.369,538.163,0.0
53731.0,STARLINK-4636,PAYLOAD,2023-01-04 10:37:57,15.08841854,0.000222,53.2199,62.8155,32.517,327.5959,0.00019076,2.749e-05,0.0,0 STARLINK-4636,1 53731U 22107AH  23004.44302501  .00002749  00000-0  19076-3 0  9997,2 53731  53.2199  62.8155 0002220  32.5170 327.5959 15.08841854 19421,6917.875,95.437,541.275,538.2040000000002,0.0
53731.0,STARLINK-4636,PAYLOAD,2023-01-04 20:10:15,15.08856895,0.0002208,53.2206,61.0322,33.5044,326.6088,0.00030953,4.644e-05,0.0,0 STARLINK-4636,1 53731U 22107AH  23004.84045563  .00004644  00000-0  30953-3 0  9996,2 53731  53.2206  61.0322 0002208  33.5044 326.6088 15.08856895 18854,6917.829000000002,95.436,541.221,538.1659999999998,0.0
53731.0,STARLINK-4636,PAYLOAD,2023-01-05 13:39:28,15.08868186,0.0002236,53.2197,57.7615,27.9805,332.1307,0.00043413,6.633e-05,0.0,0 STARLINK-4636,1 53731U 22107AH  23005.56908529  .00006633  00000-0  43413-3 0  9991,2 53731  53.2197  57.7615 0002236  27.9805 332.1307 15.08868186 19597,6917.794,95.436,541.206,538.112,0.0
53731.0,STARLINK-4636,PAYLOAD,2023-01-06 11:54:53,15.08822435,0.0002158,53.2193,53.5984,26.7267,333.3836,-0.00072627,-0.00011823,0.0,0 STARLINK-4636,1 53731U 22107AH  23006.49645062 -.00011823  00000-0 -72627-3 0  9992,2 53731  53.2193  53.5984 0002158  26.7267 333.3836 15.08822435 19102,6917.934,95.439,541.2919999999998,538.306,0.0
53731.0,STARLINK-4636,PAYLOAD,2023-01-07 03:48:45,15.08831811,0.0002167,53.2187,50.6255,24.1639,335.9454,0.0010003,0.00015664,0.0,0 STARLINK-4636,1 53731U 22107AH  23007.15885857  .00015664  00000-0  10003-2 0  9998,2 53731  53.2187  50.6255 0002167  24.1639 335.9454 15.08831811 19202,6917.905,95.438,541.27,538.271,0.0
53731.0,STARLINK-4636,PAYLOAD,2023-01-07 19:42:37,15.08821245,0.0002918,53.2173,47.6502,42.9492,317.1727,0.0003817,5.789e-05,0.0,0 STARLINK-4636,1 53731U 22107AH  23007.82126997  .00005789  00000-0  38170-3 0  9998,2 53731  53.2173  47.6502 0002918  42.9492 317.1727 15.08821245 19303,6917.938,95.439,541.821,537.784,0.0
53731.0,STARLINK-4636,PAYLOAD,2023-01-08 08:25:43,15.08826751,0.0002847,53.2182,45.2732,40.8029,319.3176,0.00038215,5.797e-05,0.0,0 STARLINK-4636,1 53731U 22107AH  23008.35119585  .00005797  00000-0  38215-3 0  9991,2 53731  53.2182  45.2732 0002847  40.8029 319.3176 15.08826751 20015,6917.920999999999,95.438,541.755,537.816,0.0
53731.0,STARLINK-4636,PAYLOAD,2023-01-08 19:33:25,15.08846849,0.0003073,53.2188,43.1912,44.7014,315.4225,0.0011859,0.0001864,0.0,0 STARLINK-4636,1 53731U 22107AH  23008.81487745  .00018640  00000-0  11859-2 0  9993,2 53731  53.2188  43.1912 0003073  44.7014 315.4225 15.08846849 20086,6917.859,95.437,541.85,537.599,0.0
53731.0,STARLINK-4636,PAYLOAD,2023-01-09 01:54:57,15.08875971,0.0003098,53.2153,42.0033,42.242,317.8811,0.0022243,0.00035326,0.0,0 STARLINK-4636,1 53731U 22107AH  23009.07983252  .00035326  00000-0  22243-2 0  9995,2 53731  53.2153  42.0033 0003098  42.2420 317.8811 15.08875971 19499,6917.77,95.435,541.779,537.492,0.0
53731.0,STARLINK-4636,PAYLOAD,2023-01-09 11:27:15,15.08867727,0.0002073,53.2215,40.219,24.6227,335.4864,0.0015581,0.00024615,0.0,0 STARLINK-4636,1 53731U 22107AH  23009.47726642  .00024615  00000-0  15581-2 0  9993,2 53731  53.2215  40.2190 0002073  24.6227 335.4864 15.08867727 20185,6917.795999999999,95.436,541.095,538.227,0.0
53731.0,STARLINK-4636,PAYLOAD,2023-01-10 08:07:16,15.08852516,0.000262,53.2201,36.354,23.6922,336.4190000000001,0.00033798,5.097e-05,0.0,0 STARLINK-4636,1 53731U 22107AH  23010.33838466  .00005097  00000-0  33798-3 0  9992,2 53731  53.2201  36.3540 0002620  23.6922 336.4190 15.08852516 19680,6917.842,95.437,541.52,537.895,0.0
